CRYOSAT 2               
1 36508U 10013A   23003.60368422  .00000203  00000+0  49572-4 0  9991
2 36508  92.0258 332.5764 0002217 307.1243  52.9762 14.51904866675173
